CTC1_L_00330001-01
1 10000U 23674KZ  26075.70033565  .00000000  00000+0  00000-0 0  9991
2 10000  80.0000   0.0000 0000000   0.0000   0.0000 14.51731151    11
CTC1_L_00330001-02
1 10001U 26863CB  26075.70033565  .00000000  00000+0  00000-0 0  9995
2 10001  80.0000   0.0000 0000000   0.0000  90.0000 14.51731151    11
CTC1_L_00330001-03
1 10002U 26936ZQ  26075.70033565  .00000000  00000+0  00000-0 0  9997
2 10002  80.0000   0.0000 0000000   0.0000 180.0000 14.51731151    12
CTC1_L_00330001-04
1 10003U 23347SP  26075.70033565  .00000000  00000+0  00000-0 0  9991
2 10003  80.0000   0.0000 0000000   0.0000 270.0000 14.51731151    13
CTC1_L_00330002-01
1 10004U 26524HC  26075.70033565  .00000000  00000+0  00000-0 0  9992
2 10004  80.0000  12.0000 0000000   0.0000  12.0000 14.51731151    11
CTC1_L_00330002-02
1 10005U 24788AN  26075.70033565  .00000000  00000+0  00000-0 0  9993
2 10005  80.0000  12.0000 0000000   0.0000 102.0000 14.51731151    12
CTC1_L_00330002-03
1 10006U 22625TW  26075.70033565  .00000000  00000+0  00000-0 0  9992
2 10006  80.0000  12.0000 0000000   0.0000 192.0000 14.51731151    12
CTC1_L_00330002-04
1 10007U 22296UH  26075.70033565  .00000000  00000+0  00000-0 0  9997
2 10007  80.0000  12.0000 0000000   0.0000 282.0000 14.51731151    13
CTC1_L_00330003-01
1 10008U 25563TH  26075.70033565  .00000000  00000+0  00000-0 0  9998
2 10008  80.0000  24.0000 0000000   0.0000  24.0000 14.51731151    11
CTC1_L_00330003-02
1 10009U 25318GM  26075.70033565  .00000000  00000+0  00000-0 0  9997
2 10009  80.0000  24.0000 0000000   0.0000 114.0000 14.51731151    12
CTC1_L_00330003-03
1 10010U 23426ZO  26075.70033565  .00000000  00000+0  00000-0 0  9997
2 10010  80.0000  24.0000 0000000   0.0000 204.0000 14.51731151    14
CTC1_L_00330003-04
1 10011U 23474OM  26075.70033565  .00000000  00000+0  00000-0 0  9991
2 10011  80.0000  24.0000 0000000   0.0000 294.0000 14.51731151    14
CTC1_L_00330004-01
1 10012U 24262CT  26075.70033565  .00000000  00000+0  00000-0 0  9998
2 10012  80.0000  36.0000 0000000   0.0000  36.0000 14.51731151    12
CTC1_L_00330004-02
1 10013U 22650XV  26075.70033565  .00000000  00000+0  00000-0 0  9998
2 10013  80.0000  36.0000 0000000   0.0000 126.0000 14.51731151    13
CTC1_L_00330004-03
1 10014U 25153RQ  26075.70033565  .00000000  00000+0  00000-0 0  9990
2 10014  80.0000  36.0000 0000000   0.0000 216.0000 14.51731151    14
CTC1_L_00330004-04
1 10015U 24789TI  26075.70033565  .00000000  00000+0  00000-0 0  9995
2 10015  80.0000  36.0000 0000000   0.0000 306.0000 14.51731151    15
CTC1_L_00330005-01
1 10016U 23840OP  26075.70033565  .00000000  00000+0  00000-0 0  9993
2 10016  80.0000  48.0000 0000000   0.0000  48.0000 14.51731151    12
CTC1_L_00330005-02
1 10017U 22110WS  26075.70033565  .00000000  00000+0  00000-0 0  9993
2 10017  80.0000  48.0000 0000000   0.0000 138.0000 14.51731151    13
CTC1_L_00330005-03
1 10018U 22944WW  26075.70033565  .00000000  00000+0  00000-0 0  9999
2 10018  80.0000  48.0000 0000000   0.0000 228.0000 14.51731151    14
CTC1_L_00330005-04
1 10019U 24029YK  26075.70033565  .00000000  00000+0  00000-0 0  9996
2 10019  80.0000  48.0000 0000000   0.0000 318.0000 14.51731151    15
CTC1_L_00330006-01
1 10020U 25010CO  26075.70033565  .00000000  00000+0  00000-0 0  9999
2 10020  80.0000  60.0000 0000000   0.0000  60.0000 14.51731151    15
CTC1_L_00330006-02
1 10021U 26370RR  26075.70033565  .00000000  00000+0  00000-0 0  9990
2 10021  80.0000  60.0000 0000000   0.0000 150.0000 14.51731151    16
CTC1_L_00330006-03
1 10022U 22805ZC  26075.70033565  .00000000  00000+0  00000-0 0  9990
2 10022  80.0000  60.0000 0000000   0.0000 240.0000 14.51731151    17
CTC1_L_00330006-04
1 10023U 25936AF  26075.70033565  .00000000  00000+0  00000-0 0  9999
2 10023  80.0000  60.0000 0000000   0.0000 330.0000 14.51731151    18
CTC1_L_00330007-01
1 10024U 23324UI  26075.70033565  .00000000  00000+0  00000-0 0  9999
2 10024  80.0000  72.0000 0000000   0.0000  72.0000 14.51731151    15
CTC1_L_00330007-02
1 10025U 25730TD  26075.70033565  .00000000  00000+0  00000-0 0  9993
2 10025  80.0000  72.0000 0000000   0.0000 162.0000 14.51731151    16
CTC1_L_00330007-03
1 10026U 22745PV  26075.70033565  .00000000  00000+0  00000-0 0  9997
2 10026  80.0000  72.0000 0000000   0.0000 252.0000 14.51731151    17
CTC1_L_00330007-04
1 10027U 24814MT  26075.70033565  .00000000  00000+0  00000-0 0  9997
2 10027  80.0000  72.0000 0000000   0.0000 342.0000 14.51731151    18
CTC1_L_00330008-01
1 10028U 24064OB  26075.70033565  .00000000  00000+0  00000-0 0  9995
2 10028  80.0000  84.0000 0000000   0.0000  84.0000 14.51731151    15
CTC1_L_00330008-02
1 10029U 24107QP  26075.70033565  .00000000  00000+0  00000-0 0  9994
2 10029  80.0000  84.0000 0000000   0.0000 174.0000 14.51731151    16
CTC1_L_00330008-03
1 10030U 24443VS  26075.70033565  .00000000  00000+0  00000-0 0  9999
2 10030  80.0000  84.0000 0000000   0.0000 264.0000 14.51731151    18
CTC1_L_00330008-04
1 10031U 23553NY  26075.70033565  .00000000  00000+0  00000-0 0  9991
2 10031  80.0000  84.0000 0000000   0.0000 354.0000 14.51731151    19
CTC1_L_00330009-01
1 10032U 22226EN  26075.70033565  .00000000  00000+0  00000-0 0  9998
2 10032  80.0000  96.0000 0000000   0.0000  96.0000 14.51731151    16
CTC1_L_00330009-02
1 10033U 23093BW  26075.70033565  .00000000  00000+0  00000-0 0  9992
2 10033  80.0000  96.0000 0000000   0.0000 186.0000 14.51731151    17
CTC1_L_00330009-03
1 10034U 22552ZS  26075.70033565  .00000000  00000+0  00000-0 0  9992
2 10034  80.0000  96.0000 0000000   0.0000 276.0000 14.51731151    18
CTC1_L_00330009-04
1 10035U 26195OP  26075.70033565  .00000000  00000+0  00000-0 0  9990
2 10035  80.0000  96.0000 0000000   0.0000   6.0000 14.51731151    10
CTC1_L_00330010-01
1 10036U 22703US  26075.70033565  .00000000  00000+0  00000-0 0  9992
2 10036  80.0000 108.0000 0000000   0.0000 108.0000 14.51731151    18
CTC1_L_00330010-02
1 10037U 24742OE  26075.70033565  .00000000  00000+0  00000-0 0  9998
2 10037  80.0000 108.0000 0000000   0.0000 198.0000 14.51731151    18
CTC1_L_00330010-03
1 10038U 26729L   26075.70033565  .00000000  00000+0  00000-0 0  9996
2 10038  80.0000 108.0000 0000000   0.0000 288.0000 14.51731151    19
CTC1_L_00330010-04
1 10039U 26256LX  26075.70033565  .00000000  00000+0  00000-0 0  9992
2 10039  80.0000 108.0000 0000000   0.0000  18.0000 14.51731151    11
CTC1_L_00330011-01
1 10040U 24530XJ  26075.70033565  .00000000  00000+0  00000-0 0  9997
2 10040  80.0000 120.0000 0000000   0.0000 120.0000 14.51731151    11
CTC1_L_00330011-02
1 10041U 25827AF  26075.70033565  .00000000  00000+0  00000-0 0  9998
2 10041  80.0000 120.0000 0000000   0.0000 210.0000 14.51731151    12
CTC1_L_00330011-03
1 10042U 26213AH  26075.70033565  .00000000  00000+0  00000-0 0  9999
2 10042  80.0000 120.0000 0000000   0.0000 300.0000 14.51731151    13
CTC1_L_00330011-04
1 10043U 26364UA  26075.70033565  .00000000  00000+0  00000-0 0  9997
2 10043  80.0000 120.0000 0000000   0.0000  30.0000 14.51731151    14
CTC1_L_00330012-01
1 10044U 24233AX  26075.70033565  .00000000  00000+0  00000-0 0  9991
2 10044  80.0000 132.0000 0000000   0.0000 132.0000 14.51731151    11
CTC1_L_00330012-02
1 10045U 23618NP  26075.70033565  .00000000  00000+0  00000-0 0  9998
2 10045  80.0000 132.0000 0000000   0.0000 222.0000 14.51731151    12
CTC1_L_00330012-03
1 10046U 26565GT  26075.70033565  .00000000  00000+0  00000-0 0  9993
2 10046  80.0000 132.0000 0000000   0.0000 312.0000 14.51731151    13
CTC1_L_00330012-04
1 10047U 26336XJ  26075.70033565  .00000000  00000+0  00000-0 0  9990
2 10047  80.0000 132.0000 0000000   0.0000  42.0000 14.51731151    14
CTC1_L_00330013-01
1 10048U 24317PH  26075.70033565  .00000000  00000+0  00000-0 0  9998
2 10048  80.0000 144.0000 0000000   0.0000 144.0000 14.51731151    11
CTC1_L_00330013-02
1 10049U 26254IP  26075.70033565  .00000000  00000+0  00000-0 0  9991
2 10049  80.0000 144.0000 0000000   0.0000 234.0000 14.51731151    12
CTC1_L_00330013-03
1 10050U 25069LI  26075.70033565  .00000000  00000+0  00000-0 0  9996
2 10050  80.0000 144.0000 0000000   0.0000 324.0000 14.51731151    14
CTC1_L_00330013-04
1 10051U 22355LF  26075.70033565  .00000000  00000+0  00000-0 0  9992
2 10051  80.0000 144.0000 0000000   0.0000  54.0000 14.51731151    15
CTC1_L_00330014-01
1 10052U 23918IG  26075.70033565  .00000000  00000+0  00000-0 0  9999
2 10052  80.0000 156.0000 0000000   0.0000 156.0000 14.51731151    12
CTC1_L_00330014-02
1 10053U 22564ZH  26075.70033565  .00000000  00000+0  00000-0 0  9996
2 10053  80.0000 156.0000 0000000   0.0000 246.0000 14.51731151    13
CTC1_L_00330014-03
1 10054U 22845UF  26075.70033565  .00000000  00000+0  00000-0 0  9999
2 10054  80.0000 156.0000 0000000   0.0000 336.0000 14.51731151    14
CTC1_L_00330014-04
1 10055U 26205RV  26075.70033565  .00000000  00000+0  00000-0 0  9994
2 10055  80.0000 156.0000 0000000   0.0000  66.0000 14.51731151    15
CTC1_L_00330015-01
1 10056U 25350UT  26075.70033565  .00000000  00000+0  00000-0 0  9995
2 10056  80.0000 168.0000 0000000   0.0000 168.0000 14.51731151    12
CTC1_L_00330015-02
1 10057U 22951BQ  26075.70033565  .00000000  00000+0  00000-0 0  9990
2 10057  80.0000 168.0000 0000000   0.0000 258.0000 14.51731151    13
CTC1_L_00330015-03
1 10058U 23828MN  26075.70033565  .00000000  00000+0  00000-0 0  9995
2 10058  80.0000 168.0000 0000000   0.0000 348.0000 14.51731151    14
CTC1_L_00330015-04
1 10059U 23335MM  26075.70033565  .00000000  00000+0  00000-0 0  9999
2 10059  80.0000 168.0000 0000000   0.0000  78.0000 14.51731151    15
CTC1_L_00330016-01
1 10060U 26155GQ  26075.70033565  .00000000  00000+0  00000-0 0  9994
2 10060  80.0000 180.0000 0000000   0.0000 180.0000 14.51731151    15
CTC1_L_00330016-02
1 10061U 25487OQ  26075.70033565  .00000000  00000+0  00000-0 0  9992
2 10061  80.0000 180.0000 0000000   0.0000 270.0000 14.51731151    16
